[{"OBJECT_NAME":"STARLINK-1647","OBJECT_ID":"2021-024B","EPOCH":"2026-03-09T22:35:10.254624","MEAN_MOTION":15.30190382,"ECCENTRICITY":0.00013757,"INCLINATION":53.16,"RA_OF_ASC_NODE":331.2366,"ARG_OF_PERICENTER":119.5555,"MEAN_ANOMALY":240.5583,"EPHEMERIS_TYPE":0,"CLASSIFICATION_TYPE":"U","NORAD_CAT_ID":47978,"ELEMENT_SET_NO":999,"REV_AT_EPOCH":27466,"BSTAR":-1.2924482e-5,"MEAN_MOTION_DOT":-7.42e-6,"MEAN_MOTION_DDOT":0},{"OBJECT_NAME":"SPACEMOBILE-001 DEB","OBJECT_ID":"2024-163F","EPOCH":"2026-03-09T07:17:56.452704","MEAN_MOTION":15.32884299,"ECCENTRICITY":0.00071876,"INCLINATION":52.9956,"RA_OF_ASC_NODE":27.518,"ARG_OF_PERICENTER":196.7865,"MEAN_ANOMALY":163.2898,"EPHEMERIS_TYPE":0,"CLASSIFICATION_TYPE":"U","NORAD_CAT_ID":62369,"ELEMENT_SET_NO":999,"REV_AT_EPOCH":7117,"BSTAR":0.00044817004,"MEAN_MOTION_DOT":0.00014099,"MEAN_MOTION_DDOT":0}]
